NORAD_CAT_ID,OBJECT_NAME,OBJECT_TYPE,EPOCH,MEAN_MOTION,ECCENTRICITY,INCLINATION,RA_OF_ASC_NODE,ARG_OF_PERICENTER,MEAN_ANOMALY,BSTAR,MEAN_MOTION_DOT,MEAN_MOTION_DDOT,TLE_LINE0,TLE_LINE1,TLE_LINE2,SEMIMAJOR_AXIS,PERIOD,APOGEE,PERIGEE,DECAYED
50828.0,STARLINK-3290,PAYLOAD,2023-06-26 16:49:13,15.08835631,0.0001135,53.217,279.7767,98.4998,261.6123,7.8736e-05,9.65e-06,0.0,0 STARLINK-3290,1 50828U 22001AB  23177.70084766  .00000965  00000-0  78736-4 0  9991,2 50828  53.2170 279.7767 0001135  98.4998 261.6123 15.08835631 82680,6917.894,95.438,540.544,538.974,0.0
50828.0,STARLINK-3290,PAYLOAD,2023-06-27 16:39:59,15.08856695,0.0001001,53.2171,275.317,97.0222,263.0884,0.00074602,0.0001161,0.0,0 STARLINK-3290,1 50828U 22001AB  23178.69444385  .00011610  00000-0  74602-3 0  9993,2 50828  53.2171 275.3170 0001001  97.0222 263.0884 15.08856695 82838,6917.829,95.436,540.387,539.002,0.0
50828.0,STARLINK-3290,PAYLOAD,2023-06-27 23:01:32,15.08848884,0.0001138,53.2174,274.1238,74.8921,285.2197,0.00026032,3.859e-05,0.0,0 STARLINK-3290,1 50828U 22001AB  23178.95940499  .00003859  00000-0  26032-3 0  9999,2 50828  53.2174 274.1238 0001138  74.8921 285.2197 15.08848884 82871,6917.853,95.437,540.505,538.931,0.0
50828.0,STARLINK-3290,PAYLOAD,2023-06-28 22:52:19,15.08842418,0.0001003,53.2175,269.6668,98.6764,261.4342,6.9024e-05,8.11e-06,0.0,0 STARLINK-3290,1 50828U 22001AB  23179.95300438  .00000811  00000-0  69024-4 0  9997,2 50828  53.2175 269.6668 0001003  98.6764 261.4342 15.08842418 83021,6917.873,95.437,540.432,539.044,0.0
50828.0,STARLINK-3290,PAYLOAD,2023-06-30 14:36:57,15.08850806,9.98e-05,53.2168,262.2332,96.3781,263.7325,0.00028667,4.279e-05,0.0,0 STARLINK-3290,1 50828U 22001AB  23181.60900181  .00004279  00000-0  28667-3 0  9992,2 50828  53.2168 262.2332 0000998  96.3781 263.7325 15.08850806 83279,6917.847,95.437,540.403,539.022,0.0
50828.0,STARLINK-3290,PAYLOAD,2023-07-01 09:41:36,15.08832144,9.98e-05,53.2171,258.6647,96.1115,263.999,-8.778e-06,-4.27e-06,0.0,0 STARLINK-3290,1 50828U 22001AB  23182.40389217 -.00000427  00000-0 -87780-5 0  9998,2 50828  53.2171 258.6647 0000998  96.1115 263.9990 15.08832144 83398,6917.904,95.438,540.46,539.079,0.0
50828.0,STARLINK-3290,PAYLOAD,2023-07-02 11:07:46,15.08843977,9.57e-05,53.2164,253.9082,69.1079,291.0016,0.00036238,5.485e-05,0.0,0 STARLINK-3290,1 50828U 22001AB  23183.46373351  .00005485  00000-0  36238-3 0  9994,2 50828  53.2164 253.9082 0000957  69.1079 291.0016 15.08843977 83550,6917.868,95.437,540.395,539.071,0.0
50828.0,STARLINK-3290,PAYLOAD,2023-07-03 14:09:19,15.0885538,0.0001032,53.2162,248.8528,65.8265,294.2835,0.00036924,5.596e-05,0.0,0 STARLINK-3290,1 50828U 22001AB  23184.58980627  .00005596  00000-0  36924-3 0  9993,2 50828  53.2162 248.8528 0001032  65.8265 294.2835 15.08855380 83725,6917.833,95.437,540.412,538.984,0.0
50828.0,STARLINK-3290,PAYLOAD,2023-07-04 10:49:20,15.08842606,9.35e-05,53.2155,244.9873,69.5719,290.5373,1.3703e-05,-7e-07,0.0,0 STARLINK-3290,1 50828U 22001AB  23185.45092891 -.00000070  00000-0  13703-4 0  9991,2 50828  53.2155 244.9873 0000935  69.5719 290.5373 15.08842606 83850,6917.872,95.437,540.384,539.091,0.0
50828.0,STARLINK-3290,PAYLOAD,2023-07-05 13:50:53,15.08846046,9.7e-05,53.2158,239.9323,73.0635,287.0464,8.9069e-05,1.13e-05,0.0,0 STARLINK-3290,1 50828U 22001AB  23186.57700734  .00001130  00000-0  89069-4 0  9992,2 50828  53.2158 239.9323 0000970  73.0635 287.0464 15.08846046 84027,6917.862,95.437,540.398,539.056,0.0
50828.0,STARLINK-3290,PAYLOAD,2023-07-06 10:30:54,15.08838121,0.0001003,53.2163,236.0673,83.1506,276.96,0.00011734,1.58e-05,0.0,0 STARLINK-3290,1 50828U 22001AB  23187.43813345  .00001580  00000-0  11734-3 0  9993,2 50828  53.2163 236.0673 0001003  83.1506 276.9600 15.08838121 84154,6917.886,95.438,540.445,539.057,0.0
50828.0,STARLINK-3290,PAYLOAD,2023-07-07 11:57:04,15.08846783,0.0001015,53.2158,231.3083,80.1156,279.9951,0.00016562,2.35e-05,0.0,0 STARLINK-3290,1 50828U 22001AB  23188.49796952  .00002350  00000-0  16562-3 0  9994,2 50828  53.2158 231.3083 0001015  80.1156 279.9951 15.08846783 84315,6917.86,95.437,540.427,539.022,0.0
50828.0,STARLINK-3290,PAYLOAD,2023-07-08 02:15:33,15.08840336,0.0001033,53.216,228.6322,79.665,280.4458,0.00010597,1.399e-05,0.0,0 STARLINK-3290,1 50828U 22001AB  23189.09413283  .00001399  00000-0  10597-3 0  9998,2 50828  53.2160 228.6322 0001033  79.6650 280.4458 15.08840336 84402,6917.879,95.438,540.459,539.03,0.0
50828.0,STARLINK-3290,PAYLOAD,2023-07-08 19:44:47,15.08833407,0.000108,53.2154,225.3606,81.4658,278.6457,0.00020637,2.998e-05,0.0,0 STARLINK-3290,1 50828U 22001AB  23189.82277772  .00002998  00000-0  20637-3 0  9992,2 50828  53.2154 225.3606 0001080  81.4658 278.6457 15.08833407 84516,6917.901,95.438,540.513,539.018,0.0
50828.0,STARLINK-3290,PAYLOAD,2023-07-10 01:57:07,15.08837655,0.0001022,53.2168,219.7112,80.0968,280.014,0.00010392,1.366e-05,0.0,0 STARLINK-3290,1 50828U 22001AB  23191.08133703  .00001366  00000-0  10392-3 0  9993,2 50828  53.2168 219.7112 0001022  80.0968 280.0140 15.08837655 84701,6917.888,95.438,540.46,539.046,0.0
50828.0,STARLINK-3290,PAYLOAD,2023-07-11 12:55:36,15.08842541,0.000105,53.2165,213.169,78.0175,282.0935,0.00011098,1.479e-05,0.0,0 STARLINK-3290,1 50828U 22001AB  23192.53861472  .00001479  00000-0  11098-3 0  9994,2 50828  53.2165 213.1690 0001050  78.0175 282.0935 15.08842541 84923,6917.873,95.437,540.464,539.011,0.0
50828.0,STARLINK-3290,PAYLOAD,2023-07-12 17:32:33,15.08839364,0.0001091,53.2165,207.8162,77.4548,282.6566,1.6356e-05,-2.7e-07,0.0,0 STARLINK-3290,1 50828U 22001AB  23193.73093765 -.00000027  00000-0  16356-4 0  9991,2 50828  53.2165 207.8162 0001091  77.4548 282.6566 15.08839364 85105,6917.882,95.438,540.502,538.993,0.0
50828.0,STARLINK-3290,PAYLOAD,2023-07-14 10:52:34,15.08839795,0.0001139,53.2169,200.0849,76.2143,283.8976,2.3787e-05,9.1e-07,0.0,0 STARLINK-3290,1 50828U 22001AB  23195.45317945  .00000091  00000-0  23787-4 0  9997,2 50828  53.2169 200.0849 0001139  76.2143 283.8976 15.08839795 85361,6917.881,95.438,540.534,538.958,0.0
50828.0,STARLINK-3290,PAYLOAD,2023-07-14 17:14:09,15.08813994,0.0001131,53.2174,198.8954,82.56,277.552,-0.00014657,-2.618e-05,0.0,0 STARLINK-3290,1 50828U 22001AB  23195.71816296 -.00002618  00000-0 -14657-3 0  9993,2 50828  53.2174 198.8954 0001131  82.5600 277.5520 15.08813994 85401,6917.96,95.439,540.607,539.042,0.0
50828.0,STARLINK-3290,PAYLOAD,2023-07-15 07:32:37,15.08825583,0.0001142,53.2166,196.219,83.8012,276.311,4.225e-07,-2.81e-06,0.0,0 STARLINK-3290,1 50828U 22001AB  23196.31431951 -.00000281  00000-0  42250-6 0  9997,2 50828  53.2166 196.2190 0001142  83.8012 276.3110 15.08825583 85497,6917.924,95.438,540.579,538.999,0.0
50828.0,STARLINK-3290,PAYLOAD,2023-07-16 08:58:47,15.08834523,0.0001767,53.2155,191.4616,109.5413,250.577,6.1925e-05,6.97e-06,0.0,0 STARLINK-3290,1 50828U 22001AB  23197.37416168  .00000697  00000-0  61925-4 0  9995,2 50828  53.2155 191.4616 0001767 109.5413 250.5770 15.08834523 85657,6917.897,95.438,540.985,538.54,0.0
50828.0,STARLINK-3290,PAYLOAD,2023-07-17 16:46:30,15.08855543,0.000118,53.2149,185.514,91.4251,268.6876,0.00056103,8.656e-05,0.0,0 STARLINK-3290,1 50828U 22001AB  23198.69896084  .00008656  00000-0  56103-3 0  9994,2 50828  53.2149 185.5140 0001180  91.4251 268.6876 15.08855543 85858,6917.833,95.437,540.514,538.882,0.0
50828.0,STARLINK-3290,PAYLOAD,2023-07-19 02:09:35,15.08848776,0.0001284,53.2154,179.2694,89.4265,270.6874,-4.9026e-05,-1.068e-05,0.0,0 STARLINK-3290,1 50828U 22001AB  23200.08998859 -.00001068  00000-0 -49026-4 0  9993,2 50828  53.2154 179.2694 0001284  89.4265 270.6874 15.08848776 86060,6917.854,95.437,540.607,538.83,0.0
50828.0,STARLINK-3290,PAYLOAD,2023-07-21 00:15:46,15.08836236,0.000133,53.2176,170.6472,98.1522,261.9621,3.1004e-05,2.06e-06,0.0,0 STARLINK-3290,1 50828U 22001AB  23202.01095225  .00000206  00000-0  31004-4 0  9991,2 50828  53.2176 170.6472 0001330  98.1522 261.9621 15.08836236 86351,6917.892,95.438,540.677,538.837,0.0
50828.0,STARLINK-3290,PAYLOAD,2023-07-23 23:48:07,15.08836009,0.0001298,53.2175,157.2658,91.8765,268.2376,1.9978e-06,-2.56e-06,0.0,0 STARLINK-3290,1 50828U 22001AB  23204.99175724 -.00000256  00000-0  19978-5 0  9996,2 50828  53.2175 157.2658 0001298  91.8765 268.2376 15.08836009 85375,6917.893,95.438,540.656,538.86,0.0
50828.0,STARLINK-3290,PAYLOAD,2023-07-25 06:00:26,15.08844663,0.0001266,53.2181,151.6153,88.3749,271.7388,0.00010601,1.4e-05,0.0,0 STARLINK-3290,1 50828U 22001AB  23206.25031050  .00001400  00000-0  10601-3 0  9993,2 50828  53.2181 151.6153 0001266  88.3749 271.7388 15.08844663 85566,6917.866,95.437,540.607,538.855,0.0
50828.0,STARLINK-3290,PAYLOAD,2023-07-26 05:51:13,15.08845025,0.000166,53.2164,147.1531,105.283,254.8346,0.00010217,1.339e-05,0.0,0 STARLINK-3290,1 50828U 22001AB  23207.24390965  .00001339  00000-0  10217-3 0  9990,2 50828  53.2164 147.1531 0001660 105.2830 254.8346 15.08845025 85711,6917.865,95.437,540.878,538.582,0.0
50828.0,STARLINK-3290,PAYLOAD,2023-07-27 05:42:00,15.08850354,0.0001363,53.2166,142.6943,96.9256,263.1891,0.00010527,1.388e-05,0.0,0 STARLINK-3290,1 50828U 22001AB  23208.23750353  .00001388  00000-0  10527-3 0  9999,2 50828  53.2166 142.6943 0001363  96.9256 263.1891 15.08850354 85863,6917.849,95.437,540.657,538.771,0.0
50828.0,STARLINK-3290,PAYLOAD,2023-07-28 00:46:39,15.08833972,0.0001216,53.217,139.122,114.6971,245.4148,-0.00011744,-2.156e-05,0.0,0 STARLINK-3290,1 50828U 22001AB  23209.03240111 -.00002156  00000-0 -11744-3 0  9992,2 50828  53.2170 139.1220 0001216 114.6971 245.4148 15.08833972 87414,6917.899,95.438,540.605,538.923,0.0
50828.0,STARLINK-3290,PAYLOAD,2023-07-28 05:32:49,15.0883233,0.000129,53.218,138.2335,108.4809,251.6324,-7.3622e-05,-1.459e-05,0.0,0 STARLINK-3290,1 50828U 22001AB  23209.23112280 -.00001459  00000-0 -73622-4 0  9998,2 50828  53.2180 138.2335 0001290 108.4809 251.6324 15.08832330 86012,6917.904,95.438,540.661,538.876,0.0
